DIAMOND RED             
1 42783U 17036U   22173.03703680  .00007648  00000+0  28611-3 0  9998
2 42783  97.1991 213.6762 0008929 321.2250  38.8348 15.27554678277642
PEGASUS                 
1 42784U 17036V   22172.63069714  .00009738  00000+0  34814-3 0  9991
2 42784  97.1985 214.4270 0008441 319.2894  40.7715 15.28978171277659
DIAMOND GREEN           
1 42785U 17036W   22173.03545112  .00006893  00000+0  25822-3 0  9996
2 42785  97.1992 213.7397 0008813 322.8090  37.2539 15.27547062277634
DIAMOND BLUE            
1 42786U 17036X   22173.16547860  .00008217  00000+0  30744-3 0  9994
2 42786  97.1994 213.8574 0008834 322.7113  37.3513 15.27524989277651
NUDTSAT                 
1 42787U 17036Y   22172.93103668  .00020027  00000+0  61307-3 0  9995
2 42787  97.2027 218.8443 0006560 305.4466  54.6163 15.33834570277787
SUCHAI                  
1 42788U 17036Z   22172.88333459  .00012374  00000+0  41799-3 0  9992
2 42788  97.1993 216.3138 0007526 311.8551  48.2047 15.30772462277869
SKCUBE                  
1 42789U 17036AA  22172.88212780  .00011064  00000+0  38287-3 0  9999
2 42789  97.1991 215.7757 0007641 313.5904  46.4702 15.30015868277753
VZLUSAT-1               
1 42790U 17036AB  22172.87368598  .00017060  00000+0  52522-3 0  9999
2 42790  97.2018 218.7557 0006247 301.7941  58.2693 15.33688882277922
ROBUSTA-1B              
1 42792U 17036AD  22172.90173579  .00011280  00000+0  38420-3 0  9997
2 42792  97.1991 216.3592 0007177 313.7269  46.3377 15.30529418277805
CICERO 6                
1 42793U 17036AE  22173.05740657  .00007317  00000+0  27473-3 0  9994
2 42793  97.1971 214.2455 0007438 322.3220  37.7498 15.27457987277773
CORVUS BC2              
1 42846U 17042X   22172.83949473  .00001060  00000+0  10717-3 0  9994
2 42846  97.4227  29.9009 0009132 352.5251   7.5832 14.92909170268939
CORVUS BC1              
1 42847U 17042Y   22172.85275619  .00000899  00000+0  91464-4 0  9999
2 42847  97.4229  30.2200 0008769 351.7207   8.3868 14.93013126268944
MIRATA                  
1 43015U 17073C   22172.67020316  .00005392  00000+0  39293-3 0  9997
2 43015  97.6743  67.8222 0238993 166.8802 193.8780 14.83999100247893
MAKERSAT 0              
1 43016U 17073D   22172.63833750  .00003265  00000+0  24490-3 0  9998
2 43016  97.6760  67.3640 0245720 171.3321 189.2258 14.82324111247819
AEROCUBE 7B (OCSD B)    
1 43042U 17071F   22172.88118154  .00207014  00000+0  93150-3 0  9993
2 43042  51.6328  19.7861 0005145 220.0624 139.9999 15.82929542256394
AEROCUBE 7C (OCSD C)    
1 43043U 17071G   22172.67345646  .00162892  00000+0  84466-3 0  9993
2 43043  51.6303  22.8677 0004549 210.7062 149.3673 15.79998644256307
ASGARDIA 1              
1 43049U 17071N   22172.62260728  .00108131  00000+0  72731-3 0  9999
2 43049  51.6312  25.7423 0002993 189.1605 170.9340 15.74332613256266
PROPCUBE 2 (FAUNA)      
1 43052U 17071R   22172.01446839  .00227239  00000+0  95644-3 0  9994
2 43052  51.6252  18.5591 0004502 222.9353 137.1299 15.84289614256297
CORVUS BC3              
1 43118U 18004H   22172.75845113  .00006598  00000+0  24839-3 0  9994
2 43118  97.3623 245.4089 0008631 358.4179   1.7032 15.27412308246879
MICROMAS-2A             
1 43131U 18004W   22172.78159469  .00021996  00000+0  61895-3 0  9996
2 43131  97.3752 252.0696 0004787 341.8909  18.2164 15.36482942247242
SPACEBEE-4              
1 43139U 18004AE  22172.77174317  .00043573  00000+0  92841-3 0  9992
2 43139  97.3845 257.0185 0002769 313.7971  46.3048 15.44799228247516
SPACEBEE-3              
1 43140U 18004AF  22172.88310538  .00085493  00000+0  12515-2 0  9999
2 43140  97.3880 260.9373 0002866 249.9143 110.1803 15.55293324247751
SPACEBEE-2              
1 43141U 18004AG  22171.82780771  .00141187  00000+0  16964-2 0  9998
2 43141  97.3892 261.3795 0003992 242.4324 117.6528 15.60389600247674
SPACEBEE-1              
1 43142U 18004AH  22172.54458562  .00220936  00000+0  18363-2 0  9994
2 43142  97.3883 263.9087 0006705 236.7410 123.3210 15.69457875247888
CICERO 7                
1 43143U 18004AJ  22172.76911009  .00014131  00000+0  43526-3 0  9997
2 43143  97.3731 251.5756 0004652 359.0493   1.0740 15.33727291247238
GOMX-4B                 
1 43196U 18015E   22172.87189965  .00005363  00000+0  20360-3 0  9995
2 43196  97.5340 312.2939 0018032  45.9735 314.2986 15.27119781243834
GOMX-4A                 
1 43197U 18015F   22172.85822714  .00007391  00000+0  26513-3 0  9999
2 43197  97.5344 313.0903 0017628  45.7264 105.0932 15.28859216243892
AEROCUBE 12A            
1 43556U 18046C   22172.59281222  .00018217  00000+0  46703-3 0  9998
2 43556  51.6353 163.6867 0008399  49.1405 311.0306 15.39380074219957
AEROCUBE 12B            
1 43557U 18046D   22172.59980621  .00013674  00000+0  37608-3 0  9994
2 43557  51.6367 168.1652 0008333  46.8242 313.3437 15.37447439219841
SURFSAT                 
1 43614U 18070B   22172.89005639  .00038334  00000+0  55723-3 0  9993
2 43614  93.0295 100.6343 0011099  22.3481 337.8263 15.55584565211752
CP7 (DAVE)              
1 43615U 18070C   22173.15988480  .00036240  00000+0  55102-3 0  9993
2 43615  93.0300 100.5990 0011545  22.5458 337.6309 15.54354111211760
ELFIN-B                 
1 43616U 18070D   22172.78877797  .00087534  00000+0  78164-3 0  9995
2 43616  93.0200 101.6534 0007587  29.0463 331.1227 15.68103811212038
ELFIN-A                 
1 43617U 18070E   22172.91333146  .00098235  00000+0  79332-3 0  9994
2 43617  93.0262 103.0677 0006171  31.9013 328.2630 15.70535697212109
CUBEBEL-1 (BSUSAT-1)    
1 43666U 18083E   22173.18557850  .00009552  00000+0  40435-3 0  9998
2 43666  97.4206 201.8173 0011594 323.1943 105.6771 15.23332457202200
CICERO 10               
1 43690U 18088A   22172.89525661  .00006929  00000+0  27594-3 0  9998
2 43690  85.0358 313.3879 0015179 126.8753 233.3885 15.24931740200417
IRVINE01                
1 43693U 18088D   22172.43497755  .00038423  00000+0  10174-2 0  9992
2 43693  85.0286 308.1469 0013195  99.1182 261.1563 15.38110913200835
PROXIMA I               
1 43694U 18088E   22173.11276350  .00009003  00000+0  34124-3 0  9999
2 43694  85.0295 309.9238 0019149  97.1182 263.2241 15.26546116200675
PROXIMA II              
1 43696U 18088G   22173.11298280  .00008957  00000+0  33970-3 0  9992
2 43696  85.0296 309.9420 0019207  97.1000 263.2429 15.26524915200676
FACSAT-1                
1 43721U 18096C   22173.19609970  .00020378  00000+0  57252-3 0  9990
2 43721  97.3512 253.0100 0013988  44.1006  40.5897 15.36459527198706
CENTAURI-2              
1 43722U 18096D   22172.77915788  .00022954  00000+0  57978-3 0  9998
2 43722  97.3556 254.5878 0012549  41.2345 318.9847 15.39741602198741
INNOSAT-2               
1 43738U 18096V   22172.82213924  .00053935  00000+0  96565-3 0  9992
2 43738  97.3662 261.7495 0012246  29.2580 118.9855 15.49720291199180
SIRION PATHFINDER-2     
1 43759U 18099B   22172.85331376  .00001690  00000+0  15405-3 0  9998
2 43759  97.6199 239.5071 0012706 243.0275 116.9649 14.96372066193707
CORVUS BC4              
1 43767U 18099K   22172.87626024  .00001755  00000+0  16236-3 0  9991
2 43767  97.6162 238.0307 0009914 249.2614 110.7545 14.95773605193636
MOVE-II                 
1 43780U 18099Y   22172.75877585  .00002853  00000+0  24778-3 0  9993
2 43780  97.6248 240.1292 0011265 254.3797 105.6182 14.97756337193707
SPACEBEE-7              
1 43816U 18099BL  22172.61223639  .00003735  00000+0  32366-3 0  9995
2 43816  97.6267 240.7131 0011234 234.1736 125.8444 14.97661001193271
SPACEBEE-5              
1 43817U 18099BM  22173.13195400  .00008671  00000+0  67904-3 0  9998
2 43817  97.6377 244.1083 0006854 250.9153 109.1329 15.01231534193478
SPACEBEE-6              
1 43818U 18099BN  22172.63265073  .00003573  00000+0  30181-3 0  9990
2 43818  97.6304 241.6089 0011361 235.8770 124.1376 14.98684393193461
SHIELDS 1               
1 43850U 18104B   22172.83996972  .00002903  00000+0  11948-3 0  9990
2 43850  85.0292  49.3093 0011811 245.5620 114.4391 15.23610378195174
STF-1                   
1 43852U 18104D   22172.46478979  .00009088  00000+0  34347-3 0  9992
2 43852  85.0316  49.8646 0010265 262.2055  97.8024 15.26776816195150
ZACUBE-2                
1 43907U 18111AH  22172.83120299  .00009346  00000+0  34415-3 0  9994
2 43907  97.1899  58.9728 0021940  66.3203 358.0587 15.27819119193961
LUME 1                  
1 43908U 18111AJ  22172.62969838  .00009721  00000+0  33035-3 0  9996
2 43908  97.1912  60.3053 0020313  62.4213 297.9089 15.30463722194033
AOBA VELOX-IV           
1 43940U 19003J   22172.65272790  .00030061  00000+0  80873-3 0  9993
2 43940  97.1259 208.3760 0019710 127.7049 232.5987 15.37625398190778
MOVE-IIB                
1 44398U 19038N   22172.90485267  .00012036  00000+0  57991-3 0  9999
2 44398  97.6288 142.2910 0023663 110.1110 250.2673 15.18639574163716
SONATE                  
1 44400U 19038Q   22172.94923791  .00004783  00000+0  26025-3 0  9990
2 44400  97.6391 141.4719 0025254 115.0384 245.3474 15.14666769163613
LUCKY-7                 
1 44406U 19038W   22172.87900641  .00005150  00000+0  27299-3 0  9990
2 44406  97.6381 141.9083 0024503 113.6066 246.7742 15.15579113163636
BEESAT 9                
1 44412U 19038AC  22172.87096727  .00007813  00000+0  39740-3 0  9990
2 44412  97.6350 142.1881 0022166 116.7528 243.5976 15.16908191163365
JAISAT-1                
1 44419U 19038F   22172.85531866  .00007755  00000+0  38933-3 0  9991
2 44419  97.6355 143.0131 0021206 114.0403 246.3053 15.17385051163724
DUCHIFAT-3              
1 44854U 19089C   22172.83023268  .00003727  00000+0  29139-3 0  9993
2 44854  36.9656  74.3952 0009349 264.4151  95.5520 15.01109251138597
EYESAT-NANO             
1 44877U 19092E   22173.04826090  .00010224  00000+0  44204-3 0  9990
2 44877  97.4646 357.3832 0010688 347.7781  12.3194 15.22606086139064
